[{"OBJECT_NAME":"YAOGAN-43 01D","OBJECT_ID":"2024-148D","EPOCH":"2026-03-09T10:27:16.254720","MEAN_MOTION":15.28369377,"ECCENTRICITY":0.00025569,"INCLINATION":35.001,"RA_OF_ASC_NODE":61.7102,"ARG_OF_PERICENTER":326.2473,"MEAN_ANOMALY":33.808,"EPHEMERIS_TYPE":0,"CLASSIFICATION_TYPE":"U","NORAD_CAT_ID":60461,"ELEMENT_SET_NO":999,"REV_AT_EPOCH":8700,"BSTAR":0.00037765912,"MEAN_MOTION_DOT":0.00010676,"MEAN_MOTION_DDOT":0},{"OBJECT_NAME":"STARLINK-33798","OBJECT_ID":"2025-069S","EPOCH":"2026-03-09T12:21:44.258976","MEAN_MOTION":15.30175783,"ECCENTRICITY":0.00013459,"INCLINATION":53.1588,"RA_OF_ASC_NODE":143.5823,"ARG_OF_PERICENTER":106.1382,"MEAN_ANOMALY":253.9767,"EPHEMERIS_TYPE":0,"CLASSIFICATION_TYPE":"U","NORAD_CAT_ID":63449,"ELEMENT_SET_NO":999,"REV_AT_EPOCH":5310,"BSTAR":0.00087810367,"MEAN_MOTION_DOT":0.00025718,"MEAN_MOTION_DDOT":0}]
